{
  "type": "FeatureCollection",
  "features": [
    {
      "type": "Feature",
      "properties": {
        "norad_id": 42917,
        "name": "QZS-3 (QZSS/PRN 199)",
        "group": "gnss",
        "lat": -0.015797706810979296,
        "lon": 8.341427593973846,
        "alt_km": 35787.53841796693,
        "timestamp": "2025-12-25T09:48:52.534986+00:00",
        "meta_object_name": "QZS-3 (QZSS/PRN 199)",
        "meta_object_id": "2017-048A",
        "meta_epoch": "2025-12-25T01:09:38.755872",
        "meta_mean_motion": 1.00265375,
        "meta_eccentricity": 0.0001993,
        "meta_inclination": 0.0631,
        "meta_ra_of_asc_node": 178.5359,
        "meta_arg_of_pericenter": 102.5351,
        "meta_mean_anomaly": 317.0997,
        "meta_ephemeris_type": 0,
        "meta_classification_type": "U",
        "meta_norad_cat_id": 42917,
        "meta_element_set_no": 999,
        "meta_rev_at_epoch": 3051,
        "meta_bstar": 0,
        "meta_mean_motion_dot": -3.27e-06,
        "meta_mean_motion_ddot": 0,
        "tle_line1": "1 42917U 17048A   25359.04836523 -.00000327  00000+0  00000+0 0  9999",
        "tle_line2": "2 42917   0.0631 178.5359 0001993 102.5351 317.0997  1.00265375 30516"
      },
      "geometry": {
        "type": "Point",
        "coordinates": [
          8.341427593973846,
          -0.015797706810979296
        ]
      }
    },
    {
      "type": "Feature",
      "properties": {
        "norad_id": 42939,
        "name": "COSMOS 2522 (752)",
        "group": "gnss",
        "lat": -56.25470392991118,
        "lon": 151.05031589279682,
        "alt_km": 19130.33328683861,
        "timestamp": "2025-12-25T09:48:52.535003+00:00",
        "meta_object_name": "COSMOS 2522 (752)",
        "meta_object_id": "2017-055A",
        "meta_epoch": "2025-12-24T02:08:41.637984",
        "meta_mean_motion": 2.13102066,
        "meta_eccentricity": 0.00062718,
        "meta_inclination": 64.0767,
        "meta_ra_of_asc_node": 197.8423,
        "meta_arg_of_pericenter": 223.2382,
        "meta_mean_anomaly": 136.7706,
        "meta_ephemeris_type": 0,
        "meta_classification_type": "U",
        "meta_norad_cat_id": 42939,
        "meta_element_set_no": 999,
        "meta_rev_at_epoch": 6424,
        "meta_bstar": 0,
        "meta_mean_motion_dot": 9.8e-07,
        "meta_mean_motion_ddot": 0,
        "tle_line1": "1 42939U 17055A   25358.08937081  .00000098  00000+0  00000+0 0  9999",
        "tle_line2": "2 42939  64.0767 197.8423 0006271 223.2382 136.7706  2.13102066 64248"
      },
      "geometry": {
        "type": "Point",
        "coordinates": [
          151.05031589279682,
          -56.25470392991118
        ]
      }
    },
    {
      "type": "Feature",
      "properties": {
        "norad_id": 42965,
        "name": "QZS-4 (QZSS/PRN 195)",
        "group": "gnss",
        "lat": 24.056366253768374,
        "lon": 17.56688466857486,
        "alt_km": 37702.996634942196,
        "timestamp": "2025-12-25T09:48:52.535017+00:00",
        "meta_object_name": "QZS-4 (QZSS/PRN 195)",
        "meta_object_id": "2017-062A",
        "meta_epoch": "2025-12-24T19:47:03.643008",
        "meta_mean_motion": 1.00301022,
        "meta_eccentricity": 0.0751986,
        "meta_inclination": 40.2171,
        "meta_ra_of_asc_node": 345.7144,
        "meta_arg_of_pericenter": 268.3083,
        "meta_mean_anomaly": 272.9513,
        "meta_ephemeris_type": 0,
        "meta_classification_type": "U",
        "meta_norad_cat_id": 42965,
        "meta_element_set_no": 999,
        "meta_rev_at_epoch": 3005,
        "meta_bstar": 0,
        "meta_mean_motion_dot": -3.02e-06,
        "meta_mean_motion_ddot": 0,
        "tle_line1": "1 42965U 17062A   25358.82434772 -.00000302  00000+0  00000+0 0  9996",
        "tle_line2": "2 42965  40.2171 345.7144 0751986 268.3083 272.9513  1.00301022 30053"
      },
      "geometry": {
        "type": "Point",
        "coordinates": [
          17.56688466857486,
          24.056366253768374
        ]
      }
    },
    {
      "type": "Feature",
      "properties": {
        "norad_id": 43001,
        "name": "BEIDOU-3 M1 (C19)",
        "group": "gnss",
        "lat": 10.772628373957595,
        "lon": -118.3874554422145,
        "alt_km": 21546.625221692062,
        "timestamp": "2025-12-25T09:48:52.535030+00:00",
        "meta_object_name": "BEIDOU-3 M1 (C19)",
        "meta_object_id": "2017-069A",
        "meta_epoch": "2025-12-24T02:03:22.370112",
        "meta_mean_motion": 1.86231021,
        "meta_eccentricity": 0.00099255,
        "meta_inclination": 56.5356,
        "meta_ra_of_asc_node": 68.8594,
        "meta_arg_of_pericenter": 302.4524,
        "meta_mean_anomaly": 57.5061,
        "meta_ephemeris_type": 0,
        "meta_classification_type": "U",
        "meta_norad_cat_id": 43001,
        "meta_element_set_no": 999,
        "meta_rev_at_epoch": 5534,
        "meta_bstar": 0,
        "meta_mean_motion_dot": -2.4e-07,
        "meta_mean_motion_ddot": 0,
        "tle_line1": "1 43001U 17069A   25358.08567558 -.00000024  00000+0  00000+0 0  9993",
        "tle_line2": "2 43001  56.5356  68.8594 0009925 302.4524  57.5061  1.86231021 55340"
      },
      "geometry": {
        "type": "Point",
        "coordinates": [
          -118.3874554422145,
          10.772628373957595
        ]
      }
    },
    {
      "type": "Feature",
      "properties": {
        "norad_id": 43002,
        "name": "BEIDOU-3 M2 (C20)",
        "group": "gnss",
        "lat": -23.40952504643523,
        "lon": -94.51340511512122,
        "alt_km": 21540.420862921063,
        "timestamp": "2025-12-25T09:48:52.535041+00:00",
        "meta_object_name": "BEIDOU-3 M2 (C20)",
        "meta_object_id": "2017-069B",
        "meta_epoch": "2025-12-25T02:21:04.022208",
        "meta_mean_motion": 1.86231058,
        "meta_eccentricity": 0.0006739,
        "meta_inclination": 56.5361,
        "meta_ra_of_asc_node": 68.8616,
        "meta_arg_of_pericenter": 327.75,
        "meta_mean_anomaly": 32.2629,
        "meta_ephemeris_type": 0,
        "meta_classification_type": "U",
        "meta_norad_cat_id": 43002,
        "meta_element_set_no": 999,
        "meta_rev_at_epoch": 5535,
        "meta_bstar": 0,
        "meta_mean_motion_dot": -2.5e-07,
        "meta_mean_motion_ddot": 0,
        "tle_line1": "1 43002U 17069B   25359.09796322 -.00000025  00000+0  00000+0 0  9990",
        "tle_line2": "2 43002  56.5361  68.8616 0006739 327.7500  32.2629  1.86231058 55357"
      },
      "geometry": {
        "type": "Point",
        "coordinates": [
          -94.51340511512122,
          -23.40952504643523
        ]
      }
    },
    {
      "type": "Feature",
      "properties": {
        "norad_id": 43055,
        "name": "GSAT0215 (GALILEO 19)",
        "group": "gnss",
        "lat": 10.744907510940246,
        "lon": -126.09397103695778,
        "alt_km": 23217.768001443605,
        "timestamp": "2025-12-25T09:48:52.535053+00:00",
        "meta_object_name": "GSAT0215 (GALILEO 19)",
        "meta_object_id": "2017-079A",
        "meta_epoch": "2025-12-24T05:08:42.877824",
        "meta_mean_motion": 1.70473983,
        "meta_eccentricity": 0.00011857,
        "meta_inclination": 55.1264,
        "meta_ra_of_asc_node": 226.3216,
        "meta_arg_of_pericenter": 351.3988,
        "meta_mean_anomaly": 8.6951,
        "meta_ephemeris_type": 0,
        "meta_classification_type": "U",
        "meta_norad_cat_id": 43055,
        "meta_element_set_no": 999,
        "meta_rev_at_epoch": 5000,
        "meta_bstar": 0,
        "meta_mean_motion_dot": 7.2e-07,
        "meta_mean_motion_ddot": 0,
        "tle_line1": "1 43055U 17079A   25358.21438516  .00000072  00000+0  00000+0 0  9991",
        "tle_line2": "2 43055  55.1264 226.3216 0001185 351.3988   8.6951  1.70473983 50002"
      },
      "geometry": {
        "type": "Point",
        "coordinates": [
          -126.09397103695778,
          10.744907510940246
        ]
      }
    },
    {
      "type": "Feature",
      "properties": {
        "norad_id": 43056,
        "name": "GSAT0216 (GALILEO 20)",
        "group": "gnss",
        "lat": -11.756575053499489,
        "lon": 54.646432295109456,
        "alt_km": 23228.46536968363,
        "timestamp": "2025-12-25T09:48:52.535066+00:00",
        "meta_object_name": "GSAT0216 (GALILEO 20)",
        "meta_object_id": "2017-079B",
        "meta_epoch": "2025-12-22T17:54:08.003808",
        "meta_mean_motion": 1.70474127,
        "meta_eccentricity": 0.00023154,
        "meta_inclination": 55.1272,
        "meta_ra_of_asc_node": 226.3621,
        "meta_arg_of_pericenter": 325.7724,
        "meta_mean_anomaly": 34.3161,
        "meta_ephemeris_type": 0,
        "meta_classification_type": "U",
        "meta_norad_cat_id": 43056,
        "meta_element_set_no": 999,
        "meta_rev_at_epoch": 4999,
        "meta_bstar": 0,
        "meta_mean_motion_dot": 7.3e-07,
        "meta_mean_motion_ddot": 0,
        "tle_line1": "1 43056U 17079B   25356.74592597  .00000073  00000+0  00000+0 0  9999",
        "tle_line2": "2 43056  55.1272 226.3621 0002315 325.7724  34.3161  1.70474127 49997"
      },
      "geometry": {
        "type": "Point",
        "coordinates": [
          54.646432295109456,
          -11.756575053499489
        ]
      }
    }
  ]
}